P/2018 P4 (PANSTARRS),e,23.1065,353.0861,8.1724,6.668168,0.0572393,0.45018882,35.2789,07/16.0/2020,2000,g 12.0,4.0
# From MPC118094
C/2018 P5 (PANSTARRS),e,7.2546,216.2452,131.6835,12.78246,0.0215666,0.64197074,10.8976,07/16.0/2020,2000,g 11.0,4.0
# From MPC118841
C/2018 R3 (Lemmon),e,69.7243,324.6324,112.8572,1771,0.0000132,0.99927162,0.0000,06/07.1963/2019,2000,g  9.5,4.0
# From MPC112393
C/2018 R4 (Fuls),e,11.6839,298.4334,345.2465,323.3645,0.0001695,0.99470582,0.0000,03/03.6972/2018,2000,g 14.0,4.0
# From MPC114603
C/2018 R5 (Lemmon),e,103.7489,171.1355,178.0327,22.79148,0.0090583,0.84107831,5.0092,07/16.0/2020,2000,g 11.5,4.0
# From MPC119996
C/2018 U1 (Lemmon),h,11/02.7878/2021,108.3014,75.4771,180.4177,1.000691,4.993956,2000,5.0,4.0
# From MPC114604
C/2018 V1 (Machholz-Fujikawa-Iwamoto),h,12/03.4430/2018,144.0532,128.8773,88.8316,1.000394,0.385740,2000,12.0,4.0
# From MPC115884
C/2018 V2 (ATLAS),e,159.1463,356.9461,318.8909,25.43227,0.0076847,0.90253774,4.5886,07/16.0/2020,2000,g 15.0,4.0
# From MPC114604
P/2018 VN2 (Leonard),e,18.2472,226.5319,138.7246,4.064874,0.1202634,0.47826957,92.7893,07/16.0/2020,2000,g 15.0,4.0
# From MPC117070
A/2018 V3,e,164.9779,308.6571,3.4982,120.6311,0.0007439,0.98889493,0.0000,09/08.6774/2019,2000,g 15.7,2.0
# From MPC114604
C/2018 V4 (Africano),e,69.0035,78.3766,359.9622,208.7308,0.0003268,0.98467825,0.0000,03/01.4964/2019,2000,g 12.5,4.0
# From MPC114604
P/2018 V5 (Trujillo-Sheppard),e,10.5832,171.2950,260.7246,8.954422,0.0367831,0.47447645,23.9839,07/16.0/2020,2000,g 12.5,4.0
# From MPC115884
C/2018 W1 (Catalina),e,83.2575,233.5911,251.2561,21.76179,0.0097087,0.93747980,4.1863,07/16.0/2020,2000,g 15.7,2.0
# From MPC119996
C/2018 W2 (Africano),h,09/05.7090/2019,116.6169,181.8537,157.9750,1.000576,1.454746,2000,9.5,4.0
# From MPC119996
C/2018 X2 (Fitzsimmons),e,23.0695,340.8288,162.0597,150.2828,0.0005350,0.98585147,0.0000,07/08.5161/2019,2000,g 12.0,4.0
# From MPC114604
C/2018 X3 (PANSTARRS),e,43.3691,78.9188,359.7789,12.38733,0.0226067,0.78222714,12.7364,07/16.0/2020,2000,g 14.5,4.0
# From MPC118842
C/2018 Y1 (Iwamoto),e,160.4013,147.5052,358.0444,143.3973,0.0005740,0.99103197,0.0000,02/07.0426/2019,2000,g 11.5,4.0
# From MPC114605
P/2018 Y2 (Africano),e,11.6829,297.2680,162.4067,7.466042,0.0483135,0.47870502,27.1033,07/16.0/2020,2000,g 11.5,4.0
# From MPC114605
P/2019 A1 (PANSTARRS),e,13.7442,312.3033,150.8177,5.125058,0.0849485,0.56842706,54.7206,07/16.0/2020,2000,g 16.0,4.0
# From MPC114605
P/2019 A2 (ATLAS),e,14.8601,139.4661,324.1287,5.725607,0.0719402,0.38140749,43.3894,07/16.0/2020,2000,g 10.5,4.0
# From MPC114605
P/2019 A3 (PANSTARRS),e,15.3652,31.3127,325.4751,3.147217,0.1765282,0.26535099,126.0447,07/16.0/2020,2000,g 16.0,4.0
# From MPC114605
P/2019 A4 (PANSTARRS),e,13.3207,119.3002,341.6639,2.613172,0.2333200,0.08915198,137.5609,07/16.0/2020,2000,g 15.0,4.0
# From MPC118842
C/2019 A5 (PANSTARRS),e,67.5537,146.6233,356.0080,21.61209,0.0098098,0.70739916,3.9529,07/16.0/2020,2000,g  9.5,4.0
# From MPC114605
P/2019 A6 (Lemmon-PANSTARRS),e,33.2291,280.2745,156.2391,5.365174,0.0793101,0.63890768,54.4741,07/16.0/2020,2000,g 16.0,4.0
# From MPC114605
P/2019 A7 (PANSTARRS),e,17.7743,280.5250,119.3029,3.186076,0.1733085,0.16098301,159.5743,07/16.0/2020,2000,g 13.5,4.0
# From MPC115884
P/2019 A8 (PANSTARRS),e,3.0020,127.6550,22.0426,3.365734,0.1596189,0.44388850,108.3439,07/16.0/2020,2000,g 16.0,4.0
# From MPC118842
C/2019 A9 (PANSTARRS),e,84.3078,278.3765,237.9146,39.81766,0.0039227,0.96411804,1.3939,07/16.0/2020,2000,g 15.0,4.0
# From MPC114606
C/2019 B1 (Africano),e,123.3630,290.4374,174.8594,149.1359,0.0005412,0.98929336,0.0000,03/19.8650/2019,2000,g 16.0,4.0
# From MPC115885
P/2019 B2 (Groeller),e,16.8262,176.4155,358.9040,3.857190,0.1301061,0.37314292,52.4954,07/16.0/2020,2000,g 14.5,4.0
# From MPC115885
C/2019 B3 (PANSTARRS),h,01/19.7629/2021,66.5372,358.4234,263.8894,1.002830,6.823750,2000,5.5,4.0
# From MPEC 2020-AA5
C/2019 C1,e,36.0190,212.3937,319.1949,799.9641,0.0000436,0.99177313,0.0000,05/05.7474/2020,2000,g 10.0,4.0
# From MPC118842
C/2019 D1 (Flewelling),e,34.0915,231.7196,70.5002,140.1706,0.0005939,0.98874173,0.0000,05/11.8745/2019,2000,g 13.0,4.0
# From MPC119997
C/2019 E3 (ATLAS),h,11/11.9774/2023,84.2856,347.2314,280.5952,1.004637,10.315602,2000,2.5,4.0
# From MPC119997
C/2019 F1 (ATLAS-Africano),h,06/22.7543/2021,54.1752,38.7261,251.1086,1.003514,3.595977,2000,5.5,4.0
# From MPC119997
C/2019 F2 (ATLAS),e,19.1870,175.8291,11.0459,16.63877,0.0145219,0.86574908,4.5158,07/16.0/2020,2000,g 12.0,4.0
# From MPEC 2020-AA5
A/2019 G2,e,159.2103,208.1490,82.6485,716.3361,0.0000514,0.99680149,0.0000,12/10.0439/2019,2000,g 16.5,2.0
# From MPC118094
A/2019 G4,h,09/15.8967/2018,138.3856,130.4645,287.8840,1.001062,5.858833,2000,13.0,2.0
# From MPC114607
P/2019 GG21 (PANSTARRS),e,6.0837,340.5930,208.4051,7.468816,0.0482866,0.47297128,20.8881,07/16.0/2020,2000,g 12.0,4.0
# From MPC115885
C/2019 H1 (NEOWISE),e,104.5780,269.1874,19.3028,230.4679,0.0002817,0.99199286,0.0000,04/27.7605/2019,2000,g 15.5,4.0
# From MPC118842
C/2019 J1 (Lemmon),e,24.5504,98.0874,167.7812,70.03436,0.0016817,0.96460541,0.7799,07/16.0/2020,2000,g 12.0,4.0
# From MPC115885
C/2019 J2 (Palomar),e,105.1394,25.4727,98.7106,675.9862,0.0000561,0.99744500,0.0000,07/19.7100/2019,2000,g 13.0,4.0
# From MPC117071
C/2019 J3 (ATLAS),h,08/01.8982/2019,131.4137,270.5184,16.5612,1.000024,2.373818,2000,13.5,4.0
# From MPC117071
C/2019 JU6 (ATLAS),e,148.2962,21.7375,94.8807,329.6961,0.0001646,0.99379647,0.0000,05/31.8637/2019,2000,g 14.5,4.0
# From MPC119997
C/2019 K1 (ATLAS),e,87.1487,73.3758,265.7098,32359,0.0000002,0.99993780,0.0000,02/12.9725/2020,2000,g 10.0,4.0
# From MPC119997
C/2019 K4 (Ye),e,105.3029,180.1643,139.7732,1809,0.0000128,0.99875123,0.0000,06/16.3855/2019,2000,g 12.5,4.0
# From MPC119997
C/2019 K5 (Young),e,15.3145,177.1752,174.9411,155.0641,0.0005104,0.98687543,0.0000,06/22.8026/2019,2000,g 13.0,4.0
# From MPC117071
A/2019 K6,e,132.3741,42.9401,187.6198,1543,0.0000163,0.99745438,0.0000,05/20.1953/2020,2000,g 13.6,2.0
# From MPC118095
C/2019 K7 (Smith),h,06/16.9346/2020,103.5361,307.9267,27.2976,1.000918,4.474933,2000,6.2,4.0
# From MPC119997
C/2019 K8 (ATLAS),e,93.2237,291.0441,85.3676,1896,0.0000119,0.99831509,0.0000,07/21.3119/2019,2000,g 11.5,4.0
# From MPC118095
C/2019 L1 (PANSTARRS),e,9.9933,254.4079,49.9382,9.834089,0.0319597,0.70606666,10.8558,07/16.0/2020,2000,g 13.5,4.0
# From MPC115886
C/2019 L2 (NEOWISE),e,152.1791,12.5868,18.7423,24.87975,0.0079421,0.93489822,3.7417,07/16.0/2020,2000,g 16.0,4.0
# From MPC119997
C/2019 L3 (ATLAS),h,01/09.8079/2022,48.3663,290.7833,171.6534,1.000621,3.553537,2000,4.5,4.0
# From MPC118095
C/2019 LB7 (Kleyna),e,164.2677,3.5755,336.2907,35.55983,0.0046480,0.93008344,2.2148,07/16.0/2020,2000,g 17.0,4.0
# From MPEC 2020-N31
P/2019 LD2 (ATLAS),e,11.5583,179.7093,123.4581,5.290065,0.0810051,0.13459921,7.8406,07/16.0/2020,2000,g  8.5,4.0
# From MPEC 2020-N31
C/2019 L3 (ATLAS),h,01/09.8545/2022,48.3664,290.7836,171.6537,1.000546,3.553676,2000,4.5,4.0
# From MPEC 2020-N31
P/2019 LM4 (Palomar),e,36.3937,72.8591,68.3803,5.717228,0.0720984,0.58512599,28.3895,07/16.0/2020,2000,g  9.5,4.0
# From MPEC 2020-N31
C/2019 N1 (ATLAS),e,82.4260,13.5743,193.4467,16380,0.0000005,0.99989593,0.0000,12/01.8054/2020,2000,g  7.5,4.0
# From MPEC 2020-N31
A/2019 O2,e,93.2862,48.3335,129.6431,57.39773,0.0022665,0.83128650,357.7441,07/16.0/2020,2000,g  9.5,2.0
# From MPEC 2020-N31
A/2019 O3,h,03/07.3251/2021,89.8146,300.3800,60.0138,1.001602,8.819767,2000,10.5,2.0
# From MPEC 2020-N31
A/2019 O4,e,115.0856,354.9201,61.8170,32.85303,0.0052341,0.88906563,0.8219,07/16.0/2020,2000,g 15.5,2.0
# From MPEC 2020-N31
C/2019 S4 (Lemmon),e,92.0249,63.1674,71.3566,238.7245,0.0002672,0.98558280,0.0000,04/07.9451/2020,2000,g 11.0,4.0
# From MPEC 2020-N31
A/2019 T1,e,120.8688,6.9500,91.0082,38.23972,0.0041680,0.88802804,359.2409,07/16.0/2020,2000,g 13.0,2.0
# From MPEC 2020-N31
C/2019 T2 (Lemmon),e,111.4687,155.6374,239.3880,2210,0.0000095,0.99880285,0.0000,04/22.3050/2021,2000,g  9.0,4.0
# From MPEC 2020-N31
C/2019 T3 (ATLAS),e,121.8627,139.5182,112.2568,5394,0.0000025,0.99889748,0.0000,03/02.4944/2021,2000,g  6.8,4.0
# From MPEC 2020-N31
A/2019 U5,h,03/30.4620/2023,113.5186,2.6659,181.5981,1.000086,3.621921,2000,10.0,2.0
# From MPEC 2020-N31
C/2019 U6 (Lemmon),e,61.0013,235.7058,329.6612,434.4752,0.0001088,0.99789574,0.0000,06/18.8226/2020,2000,g 10.0,4.0
# From MPEC 2020-N31
C/2019 Y1 (ATLAS),e,73.3490,31.3657,57.4970,232.1745,0.0002786,0.99639142,0.0000,03/15.5607/2020,2000,g 13.7,4.0
# From MPC118843
P/2019 M2 (ATLAS),e,12.2821,307.5965,332.5492,3.026089,0.1872326,0.64845436,72.8951,07/16.0/2020,2000,g 21.2,4.0
# From MPC118095
C/2019 M3 (ATLAS),h,01/02.9448/2019,99.4462,154.8962,87.9417,1.001777,2.418559,2000,12.2,4.0
# From MPC119997
C/2019 N1 (ATLAS),e,82.4259,13.5737,193.4464,25368,0.0000002,0.99993281,0.0000,12/01.7902/2020,2000,g  7.5,4.0
# From MPEC 2020-AA5
A/2019 O2,e,93.2859,48.3316,129.6695,57.40877,0.0022659,0.83135730,357.7438,07/16.0/2020,2000,g  9.5,2.0
# From MPC118843
A/2019 O3,h,03/07.6018/2021,89.8120,300.3785,60.0320,1.001717,8.818751,2000,10.0,2.0
# From MPC117072
A/2019 O4,e,115.0855,354.9201,61.8169,32.84539,0.0052359,0.88903939,0.8221,07/16.0/2020,2000,g 15.5,2.0
# From MPEC 2020-AA5
A/2019 Q1,h,07/19.8256/2020,155.7197,42.3357,55.9354,1.000340,4.996672,2000,12.5,2.0
# From MPC117072
A/2019 Q2,e,159.0214,188.0337,176.3004,57.74886,0.0022459,0.97823557,0.0000,07/22.3620/2019,2000,g 18.0,2.0
# From MPC117072
C/2019 Q3 (PANSTARRS),h,08/21.1520/2018,65.5283,151.3243,152.6580,1.004471,7.251744,2000,8.5,4.0
# From MPC117072
P/2019 S2 (PANSTARRS),e,10.4732,93.1265,216.7895,4.735122,0.0956549,0.20682234,48.8664,07/16.0/2020,2000,g 13.5,4.0
# From MPC118096
P/2019 S3 (PANSTARRS),e,8.6930,150.1629,212.9695,3.414253,0.1562286,0.47082496,50.7519,07/16.0/2020,2000,g 18.3,4.0
# From MPEC 2020-HN5
